IRIDIUM 106             
1 41917U 17003A   23315.52270796  .00000174  00000+0  55179-4 0  9997
2 41917  86.3938 125.0161 0002203  95.6573 264.4874 14.34216396357233
IRIDIUM 103             
1 41918U 17003B   23315.57979552  .00000223  00000+0  72621-4 0  9995
2 41918  86.3938 124.8947 0001772  96.5637 263.5761 14.34216018357263
IRIDIUM 109             
1 41919U 17003C   23315.51637556  .00000172  00000+0  54524-4 0  9990
2 41919  86.3940 124.9651 0001928  84.2807 275.8608 14.34218944357228
IRIDIUM 102             
1 41920U 17003D   23315.48466855 -.00000305  00000+0 -11600-3 0  9997
2 41920  86.3944 124.9224 0001949  82.8563 277.2855 14.34217688357309
IRIDIUM 105             
1 41921U 17003E   23315.80416866  .00000592  00000+0  20422-3 0  9999
2 41921  86.3944  93.1946 0002002  94.5463 265.5961 14.34228125359205
IRIDIUM 104             
1 41922U 17003F   23315.56710915  .00001404  00000+0  49421-3 0  9998
2 41922  86.3941 124.9159 0001866  89.4253 270.7156 14.34218277357309
IRIDIUM 114             
1 41923U 17003G   23315.57344024  .00000196  00000+0  63015-4 0  9997
2 41923  86.3939 124.8998 0002402  93.6273 266.5198 14.34220946357285
IRIDIUM 108             
1 41924U 17003H   23315.81103466  .00000177  00000+0  55962-4 0  9999
2 41924  86.3938  93.1310 0002169  98.4145 261.7297 14.34217609359193
